NORAD_CAT_ID,OBJECT_NAME,OBJECT_TYPE,EPOCH,MEAN_MOTION,ECCENTRICITY,INCLINATION,RA_OF_ASC_NODE,ARG_OF_PERICENTER,MEAN_ANOMALY,BSTAR,MEAN_MOTION_DOT,MEAN_MOTION_DDOT,TLE_LINE0,TLE_LINE1,TLE_LINE2,SEMIMAJOR_AXIS,PERIOD,APOGEE,PERIGEE,DECAYED
53540.0,STARLINK-4486,PAYLOAD,2023-07-12 03:50:29,15.08831587,0.0001509,53.217,105.4844,91.4645,268.652,-0.00011242,-2.076e-05,0.0,0 STARLINK-4486,1 53540U 22101P   23193.16005968 -.00002076  00000-0 -11242-3 0  9996,2 53540  53.2170 105.4844 0001509  91.4645 268.6520 15.08831587 49634,6917.906,95.438,540.815,538.727,0.0
53540.0,STARLINK-4486,PAYLOAD,2023-07-12 11:47:24,15.08836408,0.0001381,53.2174,103.998,89.6345,270.4805,-3.2985e-05,-8.13e-06,0.0,0 STARLINK-4486,1 53540U 22101P   23193.49125468 -.00000813  00000-0 -32985-4 0  9995,2 53540  53.2174 103.9980 0001381  89.6345 270.4805 15.08836408 49685,6917.891,95.438,540.712,538.801,0.0
53540.0,STARLINK-4486,PAYLOAD,2023-07-13 17:59:44,15.08826469,0.000132,53.2168,98.3477,89.5604,270.5539,0.00010179,1.332e-05,0.0,0 STARLINK-4486,1 53540U 22101P   23194.74981578  .00001332  00000-0  10179-3 0  9991,2 53540  53.2168  98.3477 0001320  89.5604 270.5539 15.08826469 49878,6917.922,95.438,540.7,538.874,0.0
53540.0,STARLINK-4486,PAYLOAD,2023-07-15 00:12:03,15.08844608,0.0001098,53.2164,92.6994,98.2737,261.8379,0.00015436,2.17e-05,0.0,0 STARLINK-4486,1 53540U 22101P   23196.00837219  .00002170  00000-0  15436-3 0  9996,2 53540  53.2164  92.6994 0001098  98.2737 261.8379 15.08844608 50064,6917.866,95.437,540.491,538.972,0.0
53540.0,STARLINK-4486,PAYLOAD,2023-07-15 16:05:55,15.08834043,0.0001505,53.2178,89.7302,112.0512,248.064,0.00013006,1.782e-05,0.0,0 STARLINK-4486,1 53540U 22101P   23196.67077887  .00001782  00000-0  13006-3 0  9995,2 53540  53.2178  89.7302 0001505 112.0512 248.0640 15.08834043 50169,6917.899,95.438,540.805,538.722,0.0
53540.0,STARLINK-4486,PAYLOAD,2023-07-16 00:02:51,15.08828373,0.0001313,53.217,88.24,103.7561,256.3577,5.9824e-05,6.64e-06,0.0,0 STARLINK-4486,1 53540U 22101P   23197.00198667  .00000664  00000-0  59824-4 0  9990,2 53540  53.2170  88.2400 0001313 103.7561 256.3577 15.08828373 50218,6917.916,95.438,540.689,538.873,0.0
53540.0,STARLINK-4486,PAYLOAD,2023-07-17 01:29:01,15.08843102,0.0001262,53.2175,83.481,95.3703,264.7433,7.7226e-05,9.41e-06,0.0,0 STARLINK-4486,1 53540U 22101P   23198.06182081  .00000941  00000-0  77226-4 0  9994,2 53540  53.2175  83.4810 0001262  95.3703 264.7433 15.08843102 50370,6917.871,95.437,540.609,538.863,0.0
53540.0,STARLINK-4486,PAYLOAD,2023-07-18 01:19:47,15.08847272,0.0001261,53.2171,79.0208,86.0568,274.0568,0.0003166,4.755e-05,0.0,0 STARLINK-4486,1 53540U 22101P   23199.05541439  .00004755  00000-0  31660-3 0  9998,2 53540  53.2171  79.0208 0001261  86.0568 274.0568 15.08847272 50525,6917.858,95.437,540.596,538.851,0.0
53540.0,STARLINK-4486,PAYLOAD,2023-07-19 01:10:35,15.08842058,0.0001364,53.2172,74.5583,87.8236,272.2912,5.1105e-05,5.26e-06,0.0,0 STARLINK-4486,1 53540U 22101P   23200.04902435  .00000526  00000-0  51105-4 0  9996,2 53540  53.2172  74.5583 0001364  87.8236 272.2912 15.08842058 50673,6917.874,95.437,540.683,538.796,0.0
53540.0,STARLINK-4486,PAYLOAD,2023-07-19 18:39:50,15.08831751,0.0001317,53.2154,71.289,85.6146,274.4997,-6.7339e-05,-1.359e-05,0.0,0 STARLINK-4486,1 53540U 22101P   23200.77767026 -.00001359  00000-0 -67339-4 0  9994,2 53540  53.2154  71.2890 0001317  85.6146 274.4997 15.08831751 50789,6917.906,95.438,540.682,538.86,0.0
53540.0,STARLINK-4486,PAYLOAD,2023-07-20 15:19:51,15.0883478,0.0001172,53.2168,67.4223,96.2812,263.8314,0.00018958,2.73e-05,0.0,0 STARLINK-4486,1 53540U 22101P   23201.63878574  .00002730  00000-0  18958-3 0  9995,2 53540  53.2168  67.4223 0001172  96.2812 263.8314 15.08834780 50913,6917.896,95.438,540.572,538.951,0.0
53540.0,STARLINK-4486,PAYLOAD,2023-07-21 00:52:09,15.08843671,0.0001172,53.2163,65.6383,92.858,267.2546,0.00025025,3.698e-05,0.0,0 STARLINK-4486,1 53540U 22101P   23202.03622080  .00003698  00000-0  25025-3 0  9996,2 53540  53.2163  65.6383 0001172  92.8580 267.2546 15.08843671 50979,6917.869,95.437,540.545,538.923,0.0
53540.0,STARLINK-4486,PAYLOAD,2023-07-21 15:10:38,15.08840969,0.0001136,53.2167,62.9607,104.0517,256.0602,0.00010365,1.362e-05,0.0,0 STARLINK-4486,1 53540U 22101P   23202.63238669  .00001362  00000-0  10365-3 0  9995,2 53540  53.2167  62.9607 0001136 104.0517 256.0602 15.08840969 51065,6917.877,95.437,540.528,538.957,0.0
53540.0,STARLINK-4486,PAYLOAD,2023-07-24 00:24:31,15.08835606,0.0001304,53.2157,52.257,76.6944,283.4193,1.5153e-05,-4.7e-07,0.0,0 STARLINK-4486,1 53540U 22101P   23205.01703511 -.00000047  00000-0  15153-4 0  9994,2 53540  53.2157  52.2570 0001304  76.6944 283.4193 15.08835606 52118,6917.894,95.438,540.661,538.857,0.0
53540.0,STARLINK-4486,PAYLOAD,2023-07-25 12:58:23,15.08836816,0.000122,53.2166,45.4173,86.1086,274.0046,0.00014902,2.084e-05,0.0,0 STARLINK-4486,1 53540U 22101P   23206.54055445  .00002084  00000-0  14902-3 0  9991,2 53540  53.2166  45.4173 0001220  86.1086 274.0046 15.08836816 52343,6917.89,95.438,540.599,538.911,0.0
53540.0,STARLINK-4486,PAYLOAD,2023-07-26 01:41:28,15.08851429,0.0001113,53.2159,43.0383,85.357,274.7549,0.00030763,4.613e-05,0.0,0 STARLINK-4486,1 53540U 22101P   23207.07046793  .00004613  00000-0  30763-3 0  9999,2 53540  53.2159  43.0383 0001113  85.3570 274.7549 15.08851429 52423,6917.845,95.437,540.48,538.94,0.0
53540.0,STARLINK-4486,PAYLOAD,2023-07-26 15:59:56,15.08848444,0.000113,53.2164,40.3622,85.0417,275.0704,0.00017612,2.517e-05,0.0,0 STARLINK-4486,1 53540U 22101P   23207.66662908  .00002517  00000-0  17612-3 0  9995,2 53540  53.2164  40.3622 0001130  85.0417 275.0704 15.08848444 51824,6917.855,95.437,540.501,538.938,0.0
53540.0,STARLINK-4486,PAYLOAD,2023-07-27 06:18:25,15.08834749,0.0002883,53.2163,37.6848,88.9138,271.2184,2.4765e-05,1.06e-06,0.0,0 STARLINK-4486,1 53540U 22101P   23208.26279492  .00000106  00000-0  24765-4 0  9994,2 53540  53.2163  37.6848 0002883  88.9138 271.2184 15.08834749 51913,6917.896,95.438,541.756,537.767,0.0
53540.0,STARLINK-4486,PAYLOAD,2023-07-27 12:39:57,15.08839149,0.0001635,53.2161,36.4954,94.2595,265.8584,8.9063e-05,1.13e-05,0.0,0 STARLINK-4486,1 53540U 22101P   23208.52775220  .00001130  00000-0  89063-4 0  9993,2 53540  53.2161  36.4954 0001635  94.2595 265.8584 15.08839149 52640,6917.883,95.438,540.879,538.617,0.0
53540.0,STARLINK-4486,PAYLOAD,2023-07-27 15:50:44,15.08834894,0.0001326,53.2156,35.8992,109.2553,250.8582,-4.1746e-05,-9.52e-06,0.0,0 STARLINK-4486,1 53540U 22101P   23208.66023303 -.00000952  00000-0 -41746-4 0  9995,2 53540  53.2156  35.8992 0001326 109.2553 250.8582 15.08834894 52663,6917.896,95.438,540.678,538.844,0.0
53540.0,STARLINK-4486,PAYLOAD,2023-07-28 09:19:59,15.08834159,0.0001073,53.2171,32.6316,93.274,266.8375,0.00010076,1.316e-05,0.0,0 STARLINK-4486,1 53540U 22101P   23209.38887793  .00001316  00000-0  10076-3 0  9990,2 53540  53.2171  32.6316 0001073  93.2740 266.8375 15.08834159 52081,6917.898,95.438,540.506,539.021,0.0
53540.0,STARLINK-4486,PAYLOAD,2023-07-28 22:03:03,15.08846534,0.0001873,53.2173,30.2527,116.1019,244.0166,-4.3672e-06,-3.58e-06,0.0,0 STARLINK-4486,1 53540U 22101P   23209.91879350 -.00000358  00000-0 -43672-5 0  9996,2 53540  53.2173  30.2527 0001873 116.1019 244.0166 15.08846534 52168,6917.86,95.437,541.021,538.43,0.0
53540.0,STARLINK-4486,PAYLOAD,2023-07-29 23:29:13,15.08861171,0.0001152,53.2168,25.4945,94.0037,266.1087,0.00053757,8.283e-05,0.0,0 STARLINK-4486,1 53540U 22101P   23210.97862970  .00008283  00000-0  53757-3 0  9990,2 53540  53.2168  25.4945 0001152  94.0037 266.1087 15.08861171 52325,6917.816,95.436,540.478,538.884,0.0
53540.0,STARLINK-4486,PAYLOAD,2023-07-30 18:33:51,15.0885017,0.0001011,53.2166,21.9257,92.1814,267.9294,0.00030727,4.607e-05,0.0,0 STARLINK-4486,1 53540U 22101P   23211.77351231  .00004607  00000-0  30727-3 0  9990,2 53540  53.2166  21.9257 0001011  92.1814 267.9294 15.08850170 52445,6917.849,95.437,540.414,539.015,0.0
53540.0,STARLINK-4486,PAYLOAD,2023-07-31 18:24:39,15.08836751,0.0001038,53.2166,17.4644,90.1537,269.9574,0.0003755,5.693e-05,0.0,0 STARLINK-4486,1 53540U 22101P   23212.76711897  .00005693  00000-0  37550-3 0  9995,2 53540  53.2166  17.4644 0001038  90.1537 269.9574 15.08836751 52592,6917.89,95.438,540.473,539.037,0.0
53540.0,STARLINK-4486,PAYLOAD,2023-08-01 19:50:49,15.0885653,9.99e-05,53.2157,12.7062,84.178,275.9326,0.00090214,0.00014105,0.0,0 STARLINK-4486,1 53540U 22101P   23213.82695840  .00014105  00000-0  90214-3 0  9996,2 53540  53.2157  12.7062 0000999  84.1780 275.9326 15.08856530 52759,6917.83,95.437,540.386,539.004,0.0
53540.0,STARLINK-4486,PAYLOAD,2023-08-02 10:09:17,15.08841554,0.0001001,53.2157,10.0297,90.2225,269.8882,0.00011039,1.47e-05,0.0,0 STARLINK-4486,1 53540U 22101P   23214.42311925  .00001470  00000-0  11039-3 0  9991,2 53540  53.2157  10.0297 0001001  90.2225 269.8882 15.08841554 52846,6917.876,95.437,540.433,539.048,0.0
53540.0,STARLINK-4486,PAYLOAD,2023-08-02 19:41:35,15.08852682,9.84e-05,53.2164,8.246,83.7758,276.3346,0.00029697,4.443e-05,0.0,0 STARLINK-4486,1 53540U 22101P   23214.82055453  .00004443  00000-0  29697-3 0  9998,2 53540  53.2164   8.2460 0000984  83.7758 276.3346 15.08852682 52901,6917.842,95.437,540.387,539.026,0.0
53540.0,STARLINK-4486,PAYLOAD,2023-08-03 10:00:04,15.08840576,9.53e-05,53.2164,5.5699,86.2843,273.8258,7.5975e-05,9.22e-06,0.0,0 STARLINK-4486,1 53540U 22101P   23215.41671938  .00000922  00000-0  75975-4 0  9995,2 53540  53.2164   5.5699 0000953  86.2843 273.8258 15.08840576 52996,6917.879,95.438,540.403,539.084,0.0
53540.0,STARLINK-4486,PAYLOAD,2023-08-03 21:07:45,15.0885543,9.85e-05,53.2177,3.4875,77.893,282.2172,8.7028e-05,1.098e-05,0.0,0 STARLINK-4486,1 53540U 22101P   23215.88038953  .00001098  00000-0  87028-4 0  9997,2 53540  53.2177   3.4875 0000985  77.8930 282.2172 15.08855430 53064,6917.833,95.437,540.38,539.017,0.0
